<?xml version="1.0" encoding="UTF-8"?>
<ndm xmlns:xsi="http://www.w3.org/2001/XMLSchema-instance" xsi:noNamespaceSchemaLocation="https://sanaregistry.org/r/ndmxml_unqualified/ndmxml-2.0.0-master-2.0.xsd">
<omm id="CCSDS_OMM_VERS" version="2.0">
<header><CREATION_DATE/><ORIGINATOR/></header><body><segment><metadata><OBJECT_NAME>IRIDIUM 63</OBJECT_NAME><OBJECT_ID>1998-021B</OBJECT_ID><CENTER_NAME>EARTH</CENTER_NAME><REF_FRAME>TEME</REF_FRAME><TIME_SYSTEM>UTC</TIME_SYSTEM><MEAN_ELEMENT_THEORY>SGP4</MEAN_ELEMENT_THEORY></metadata><data><meanElements><EPOCH>2025-02-10T17:57:19.660608</EPOCH><MEAN_MOTION>14.36372660</MEAN_MOTION><ECCENTRICITY>.0001986</ECCENTRICITY><INCLINATION>86.4022</INCLINATION><RA_OF_ASC_NODE>135.1745</RA_OF_ASC_NODE><ARG_OF_PERICENTER>92.8997</ARG_OF_PERICENTER><MEAN_ANOMALY>267.2427</MEAN_ANOMALY></meanElements><tleParameters><EPHEMERIS_TYPE>0</EPHEMERIS_TYPE><CLASSIFICATION_TYPE>U</CLASSIFICATION_TYPE><NORAD_CAT_ID>25286</NORAD_CAT_ID><ELEMENT_SET_NO>999</ELEMENT_SET_NO><REV_AT_EPOCH>40569</REV_AT_EPOCH><BSTAR>.20772E-3</BSTAR><MEAN_MOTION_DOT>.627E-5</MEAN_MOTION_DOT><MEAN_MOTION_DDOT>0</MEAN_MOTION_DDOT></tleParameters></data></segment></body></omm>
<omm id="CCSDS_OMM_VERS" version="2.0">
<header><CREATION_DATE/><ORIGINATOR/></header><body><segment><metadata><OBJECT_NAME>IRIDIUM 69</OBJECT_NAME><OBJECT_ID>1998-026A</OBJECT_ID><CENTER_NAME>EARTH</CENTER_NAME><REF_FRAME>TEME</REF_FRAME><TIME_SYSTEM>UTC</TIME_SYSTEM><MEAN_ELEMENT_THEORY>SGP4</MEAN_ELEMENT_THEORY></metadata><data><meanElements><EPOCH>2025-02-10T19:11:50.639424</EPOCH><MEAN_MOTION>14.40746743</MEAN_MOTION><ECCENTRICITY>.0004357</ECCENTRICITY><INCLINATION>86.4033</INCLINATION><RA_OF_ASC_NODE>148.8088</RA_OF_ASC_NODE><ARG_OF_PERICENTER>88.5591</ARG_OF_PERICENTER><MEAN_ANOMALY>271.6108</MEAN_ANOMALY></meanElements><tleParameters><EPHEMERIS_TYPE>0</EPHEMERIS_TYPE><CLASSIFICATION_TYPE>U</CLASSIFICATION_TYPE><NORAD_CAT_ID>25319</NORAD_CAT_ID><ELEMENT_SET_NO>999</ELEMENT_SET_NO><REV_AT_EPOCH>40486</REV_AT_EPOCH><BSTAR>.32615E-3</BSTAR><MEAN_MOTION_DOT>.1062E-4</MEAN_MOTION_DOT><MEAN_MOTION_DDOT>0</MEAN_MOTION_DDOT></tleParameters></data></segment></body></omm>
<omm id="CCSDS_OMM_VERS" version="2.0">
<header><CREATION_DATE/><ORIGINATOR/></header><body><segment><metadata><OBJECT_NAME>IRIDIUM 71</OBJECT_NAME><OBJECT_ID>1998-026B</OBJECT_ID><CENTER_NAME>EARTH</CENTER_NAME><REF_FRAME>TEME</REF_FRAME><TIME_SYSTEM>UTC</TIME_SYSTEM><MEAN_ELEMENT_THEORY>SGP4</MEAN_ELEMENT_THEORY></metadata><data><meanElements><EPOCH>2025-02-10T19:46:59.769696</EPOCH><MEAN_MOTION>14.40965810</MEAN_MOTION><ECCENTRICITY>.0003874</ECCENTRICITY><INCLINATION>86.4025</INCLINATION><RA_OF_ASC_NODE>143.5177</RA_OF_ASC_NODE><ARG_OF_PERICENTER>120.1391</ARG_OF_PERICENTER><MEAN_ANOMALY>240.0193</MEAN_ANOMALY></meanElements><tleParameters><EPHEMERIS_TYPE>0</EPHEMERIS_TYPE><CLASSIFICATION_TYPE>U</CLASSIFICATION_TYPE><NORAD_CAT_ID>25320</NORAD_CAT_ID><ELEMENT_SET_NO>999</ELEMENT_SET_NO><REV_AT_EPOCH>40539</REV_AT_EPOCH><BSTAR>.27506E-3</BSTAR><MEAN_MOTION_DOT>.903E-5</MEAN_MOTION_DOT><MEAN_MOTION_DDOT>0</MEAN_MOTION_DDOT></tleParameters></data></segment></body></omm>
<omm id="CCSDS_OMM_VERS" version="2.0">
<header><CREATION_DATE/><ORIGINATOR/></header><body><segment><metadata><OBJECT_NAME>IRIDIUM 73</OBJECT_NAME><OBJECT_ID>1998-032C</OBJECT_ID><CENTER_NAME>EARTH</CENTER_NAME><REF_FRAME>TEME</REF_FRAME><TIME_SYSTEM>UTC</TIME_SYSTEM><MEAN_ELEMENT_THEORY>SGP4</MEAN_ELEMENT_THEORY></metadata><data><meanElements><EPOCH>2025-02-10T16:55:52.280544</EPOCH><MEAN_MOTION>14.51421072</MEAN_MOTION><ECCENTRICITY>.0002881</ECCENTRICITY><INCLINATION>86.4388</INCLINATION><RA_OF_ASC_NODE>100.5551</RA_OF_ASC_NODE><ARG_OF_PERICENTER>87.5889</ARG_OF_PERICENTER><MEAN_ANOMALY>272.5646</MEAN_ANOMALY></meanElements><tleParameters><EPHEMERIS_TYPE>0</EPHEMERIS_TYPE><CLASSIFICATION_TYPE>U</CLASSIFICATION_TYPE><NORAD_CAT_ID>25344</NORAD_CAT_ID><ELEMENT_SET_NO>999</ELEMENT_SET_NO><REV_AT_EPOCH>41221</REV_AT_EPOCH><BSTAR>.27225E-3</BSTAR><MEAN_MOTION_DOT>.1106E-4</MEAN_MOTION_DOT><MEAN_MOTION_DDOT>0</MEAN_MOTION_DDOT></tleParameters></data></segment></body></omm>

</ndm>
