IRIDIUM 63              
1 25286U 98021B   25041.74814422  .00000627  00000+0  20772-3 0  9992
2 25286  86.4022 135.1745 0001986  92.8997 267.2427 14.36372660405693
IRIDIUM 69              
1 25319U 98026A   25041.79989166  .00001062  00000+0  32615-3 0  9990
2 25319  86.4033 148.8088 0004357  88.5591 271.6108 14.40746743404865
IRIDIUM 71              
1 25320U 98026B   25041.82430289  .00000903  00000+0  27506-3 0  9999
2 25320  86.4025 143.5177 0003874 120.1391 240.0193 14.40965810405394
IRIDIUM 73              
1 25344U 98032C   25041.70546621  .00001106  00000+0  27225-3 0  9991
2 25344  86.4388 100.5551 0002881  87.5889 272.5646 14.51421072412217
